{
  "type": "FeatureCollection",
  "features": [
    {
      "type": "Feature",
      "properties": {
        "norad_id": 34396,
        "name": "COSMOS 2251 DEB",
        "group": "cosmos-2251-debris",
        "lat": -70.5732803647482,
        "lon": -29.709074853107715,
        "alt_km": 654.6721769719197,
        "timestamp": "2025-12-27T02:10:16.583224+00:00",
        "meta_object_name": "COSMOS 2251 DEB",
        "meta_object_id": "1993-036QM",
        "meta_epoch": "2025-12-26T07:12:21.483360",
        "meta_mean_motion": 14.74772436,
        "meta_eccentricity": 0.0004354,
        "meta_inclination": 74.029,
        "meta_ra_of_asc_node": 97.5391,
        "meta_arg_of_pericenter": 131.2453,
        "meta_mean_anomaly": 253.7887,
        "meta_ephemeris_type": 0,
        "meta_classification_type": "U",
        "meta_norad_cat_id": 34396,
        "meta_element_set_no": 999,
        "meta_rev_at_epoch": 88546,
        "meta_bstar": 0.0020344,
        "meta_mean_motion_dot": 0.00013612,
        "meta_mean_motion_ddot": 0,
        "tle_line1": "1 34396U 93036QM  25360.30024865  .00013612  00000+0  20344-2 0  9997",
        "tle_line2": "2 34396  74.0290  97.5391 0004354 131.2453 253.7887 14.74772436885464"
      },
      "geometry": {
        "type": "Point",
        "coordinates": [
          -29.709074853107715,
          -70.5732803647482
        ]
      }
    },
    {
      "type": "Feature",
      "properties": {
        "norad_id": 34400,
        "name": "COSMOS 2251 DEB",
        "group": "cosmos-2251-debris",
        "lat": 17.373362301660688,
        "lon": 166.25013931156064,
        "alt_km": 384.76941678734056,
        "timestamp": "2025-12-27T02:10:16.583235+00:00",
        "meta_object_name": "COSMOS 2251 DEB",
        "meta_object_id": "1993-036QR",
        "meta_epoch": "2025-12-26T00:51:22.561920",
        "meta_mean_motion": 15.59867989,
        "meta_eccentricity": 0.00031289,
        "meta_inclination": 73.9625,
        "meta_ra_of_asc_node": 353.7728,
        "meta_arg_of_pericenter": 197.7837,
        "meta_mean_anomaly": 162.3272,
        "meta_ephemeris_type": 0,
        "meta_classification_type": "U",
        "meta_norad_cat_id": 34400,
        "meta_element_set_no": 999,
        "meta_rev_at_epoch": 90181,
        "meta_bstar": 0.0034840418,
        "meta_mean_motion_dot": 0.00290612,
        "meta_mean_motion_ddot": 0,
        "tle_line1": "1 34400U 93036QR  25360.03567780  .00290612  00000+0  34840-2 0  9994",
        "tle_line2": "2 34400  73.9625 353.7728 0003128 197.7837 162.3272 15.59867989901815"
      },
      "geometry": {
        "type": "Point",
        "coordinates": [
          166.25013931156064,
          17.373362301660688
        ]
      }
    },
    {
      "type": "Feature",
      "properties": {
        "norad_id": 34409,
        "name": "COSMOS 2251 DEB",
        "group": "cosmos-2251-debris",
        "lat": 14.358719863692402,
        "lon": -76.22275833152732,
        "alt_km": 648.2725714421722,
        "timestamp": "2025-12-27T02:10:16.583245+00:00",
        "meta_object_name": "COSMOS 2251 DEB",
        "meta_object_id": "1993-036RA",
        "meta_epoch": "2025-12-26T13:43:20.964288",
        "meta_mean_motion": 14.58060964,
        "meta_eccentricity": 0.0080461,
        "meta_inclination": 74.0637,
        "meta_ra_of_asc_node": 280.5674,
        "meta_arg_of_pericenter": 351.315,
        "meta_mean_anomaly": 181.8118,
        "meta_ephemeris_type": 0,
        "meta_classification_type": "U",
        "meta_norad_cat_id": 34409,
        "meta_element_set_no": 999,
        "meta_rev_at_epoch": 89394,
        "meta_bstar": 0.00027355,
        "meta_mean_motion_dot": 1.284e-05,
        "meta_mean_motion_ddot": 0,
        "tle_line1": "1 34409U 93036RA  25360.57177042  .00001284  00000+0  27355-3 0  9999",
        "tle_line2": "2 34409  74.0637 280.5674 0080461 351.3150 181.8118 14.58060964893942"
      },
      "geometry": {
        "type": "Point",
        "coordinates": [
          -76.22275833152732,
          14.358719863692402
        ]
      }
    },
    {
      "type": "Feature",
      "properties": {
        "norad_id": 34410,
        "name": "COSMOS 2251 DEB",
        "group": "cosmos-2251-debris",
        "lat": -9.837636244045623,
        "lon": -131.77177704125424,
        "alt_km": 506.3549959917973,
        "timestamp": "2025-12-27T02:10:16.583255+00:00",
        "meta_object_name": "COSMOS 2251 DEB",
        "meta_object_id": "1993-036RB",
        "meta_epoch": "2025-12-26T15:17:57.460704",
        "meta_mean_motion": 15.20204778,
        "meta_eccentricity": 0.0021247,
        "meta_inclination": 73.7358,
        "meta_ra_of_asc_node": 232.0969,
        "meta_arg_of_pericenter": 70.7601,
        "meta_mean_anomaly": 321.2169,
        "meta_ephemeris_type": 0,
        "meta_classification_type": "U",
        "meta_norad_cat_id": 34410,
        "meta_element_set_no": 999,
        "meta_rev_at_epoch": 89985,
        "meta_bstar": 0.0022532,
        "meta_mean_motion_dot": 0.00049424,
        "meta_mean_motion_ddot": 0,
        "tle_line1": "1 34410U 93036RB  25360.63747061  .00049424  00000+0  22532-2 0  9991",
        "tle_line2": "2 34410  73.7358 232.0969 0021247  70.7601 321.2169 15.20204778899854"
      },
      "geometry": {
        "type": "Point",
        "coordinates": [
          -131.77177704125424,
          -9.837636244045623
        ]
      }
    },
    {
      "type": "Feature",
      "properties": {
        "norad_id": 34412,
        "name": "COSMOS 2251 DEB",
        "group": "cosmos-2251-debris",
        "lat": 24.722138467898926,
        "lon": -54.76371288341685,
        "alt_km": 600.0341519481772,
        "timestamp": "2025-12-27T02:10:16.583265+00:00",
        "meta_object_name": "COSMOS 2251 DEB",
        "meta_object_id": "1993-036RD",
        "meta_epoch": "2025-12-26T19:25:16.121568",
        "meta_mean_motion": 14.47323465,
        "meta_eccentricity": 0.0187736,
        "meta_inclination": 73.9484,
        "meta_ra_of_asc_node": 298.1477,
        "meta_arg_of_pericenter": 29.9912,
        "meta_mean_anomaly": 331.184,
        "meta_ephemeris_type": 0,
        "meta_classification_type": "U",
        "meta_norad_cat_id": 34412,
        "meta_element_set_no": 999,
        "meta_rev_at_epoch": 87854,
        "meta_bstar": 0.0019382,
        "meta_mean_motion_dot": 8.837e-05,
        "meta_mean_motion_ddot": 0,
        "tle_line1": "1 34412U 93036RD  25360.80921437  .00008837  00000+0  19382-2 0  9995",
        "tle_line2": "2 34412  73.9484 298.1477 0187736  29.9912 331.1840 14.47323465878544"
      },
      "geometry": {
        "type": "Point",
        "coordinates": [
          -54.76371288341685,
          24.722138467898926
        ]
      }
    },
    {
      "type": "Feature",
      "properties": {
        "norad_id": 34413,
        "name": "COSMOS 2251 DEB",
        "group": "cosmos-2251-debris",
        "lat": -52.137431077694394,
        "lon": -142.7997689723192,
        "alt_km": 736.3511424420485,
        "timestamp": "2025-12-27T02:10:16.583275+00:00",
        "meta_object_name": "COSMOS 2251 DEB",
        "meta_object_id": "1993-036RE",
        "meta_epoch": "2025-12-26T16:29:13.955712",
        "meta_mean_motion": 14.29199026,
        "meta_eccentricity": 0.009094,
        "meta_inclination": 74.0304,
        "meta_ra_of_asc_node": 239.5459,
        "meta_arg_of_pericenter": 313.4526,
        "meta_mean_anomaly": 76.311,
        "meta_ephemeris_type": 0,
        "meta_classification_type": "U",
        "meta_norad_cat_id": 34413,
        "meta_element_set_no": 999,
        "meta_rev_at_epoch": 87330,
        "meta_bstar": 0.001248,
        "meta_mean_motion_dot": 3.289e-05,
        "meta_mean_motion_ddot": 0,
        "tle_line1": "1 34413U 93036RE  25360.68696708  .00003289  00000+0  12480-2 0  9990",
        "tle_line2": "2 34413  74.0304 239.5459 0090940 313.4526  76.3110 14.29199026873300"
      },
      "geometry": {
        "type": "Point",
        "coordinates": [
          -142.7997689723192,
          -52.137431077694394
        ]
      }
    },
    {
      "type": "Feature",
      "properties": {
        "norad_id": 34420,
        "name": "COSMOS 2251 DEB",
        "group": "cosmos-2251-debris",
        "lat": -71.52740257685434,
        "lon": -44.81208416406228,
        "alt_km": 643.0881292289196,
        "timestamp": "2025-12-27T02:10:16.583285+00:00",
        "meta_object_name": "COSMOS 2251 DEB",
        "meta_object_id": "1993-036RM",
        "meta_epoch": "2025-12-26T15:52:05.994336",
        "meta_mean_motion": 14.68337782,
        "meta_eccentricity": 0.0105967,
        "meta_inclination": 74.0332,
        "meta_ra_of_asc_node": 77.0311,
        "meta_arg_of_pericenter": 194.8501,
        "meta_mean_anomaly": 316.3312,
        "meta_ephemeris_type": 0,
        "meta_classification_type": "U",
        "meta_norad_cat_id": 34420,
        "meta_element_set_no": 999,
        "meta_rev_at_epoch": 89974,
        "meta_bstar": 0.00022896,
        "meta_mean_motion_dot": 1.404e-05,
        "meta_mean_motion_ddot": 0,
        "tle_line1": "1 34420U 93036RM  25360.66118049  .00001404  00000+0  22896-3 0  9993",
        "tle_line2": "2 34420  74.0332  77.0311 0105967 194.8501 316.3312 14.68337782899744"
      },
      "geometry": {
        "type": "Point",
        "coordinates": [
          -44.81208416406228,
          -71.52740257685434
        ]
      }
    }
  ]
}